ARIANE 5 R/B            
1 28499U 04049H   25358.71356238  .00001259  00000+0  14580-3 0  9994
2 28499  98.2529 159.4247 0083483 233.6095 125.7398 14.85041569134663
CZ-2D R/B               
1 28738U 05024B   25358.76699907  .00033256  00000+0  51686-3 0  9992
2 28738  97.3629   6.5343 0003580 316.9601  43.1372 15.53872978128128
ALOS (DAICHI)           
1 28931U 06002A   25351.73419158  .00001110  00000+0  19545-3 0  9994
2 28931  98.1098 303.1864 0001361 113.5739 246.5610 14.69501788 61443
H-2A R/B                
1 28932U 06002B   25357.88380305  .00009611  00000+0  50269-3 0  9990
2 28932  98.2324 133.5443 0054784 138.7467 221.7923 15.14781981 82956
RESURS-DK 1             
1 29228U 06021A   25358.60472187  .00002909  00000+0  17407-3 0  9991
2 29228  69.9337  71.1740 0006899 248.2576 111.7856 15.12224408 76177
CZ-4B R/B               
1 29507U 06046C   25358.65059950  .00005250  00000+0  27300-3 0  9997
2 29507  97.5715  38.7565 0034312 165.0247 195.2010 15.15986990 48677
CZ-2C R/B               
1 31114U 07010B   25358.83654292  .00000147  00000+0  86161-4 0  9997
2 31114  98.3975 110.8787 0059605 150.9726 209.4788 14.20214468969093
COSMO-SKYMED 1          
1 31598U 07023A   25358.82922767  .00003125  00000+0  28493-3 0  9993
2 31598  97.8840 184.3084 0001284  78.1165 282.0200 14.95853242  3713
COSMOS 2428             
1 31792U 07029A   25358.70318669  .00000204  00000+0  13523-3 0  9995
2 31792  70.9367   0.7609 0004347   6.9198 353.1982 14.12894626953505
SL-16 R/B               
1 31793U 07029B   25358.71330523  .00000289  00000+0  17445-3 0  9990
2 31793  70.9763 329.9875 0001878 264.6920 268.2622 14.14818501954765
KORONAS-FOTON           
1 33504U 09003A   25358.05087019  .00009263  00000+0  22010-3 0  9997
2 33504  82.4310 354.3824 0013342  73.3551 286.9159 15.41409947934089
CZ-2C R/B               
1 37731U 11030B   25358.82257561  .00001312  00000+0  17277-3 0  9998
2 37731  97.8432 312.6630 0051541 233.1888 183.9388 14.80937036779011
H-2A R/B                
1 38341U 12025E   25358.82527852  .00003363  00000+0  31161-3 0  9990
2 38341  98.4613 314.9885 0044573 195.8097 164.1732 14.94517632737038
SHIJIAN-16 (SJ-16)      
1 39358U 13057A   25358.87324715  .00002346  00000+0  23349-3 0  9992
2 39358  74.9736 326.6953 0017944 291.6900  68.2377 14.92018188660346
SL-4 R/B                
1 39679U 14021B   25358.19059351  .00012729  00000+0  30195-3 0  9999
2 39679  51.6093 344.9337 0100917 187.5474 172.3995 15.36926598644652
ALOS-2                  
1 39766U 14029A   25358.98459557  .00003225  00000+0  43861-3 0  9998
2 39766  97.9226  93.6564 0001364 101.0923 259.0442 14.79466578625827
YAOGAN-29               
1 41038U 15069A   25358.83051966  .00000625  00000+0  83812-4 0  9996
2 41038  98.0205  22.0399 0000882 165.8898 194.2339 14.82895051544782
ASTRO-H (HITOMI)        
1 41337U 16012A   25358.65961124  .00003659  00000+0  21730-3 0  9993
2 41337  30.9990 120.5212 0009692 298.1550  61.8109 15.09426021540889
HXMT (HUIYAN)           
1 42758U 17034A   25358.71391402  .00006356  00000+0  32954-3 0  9996
2 42758  43.0144  73.1756 0031190 122.0509 238.3374 15.16371541471158
CZ-2C R/B               
1 43521U 18054D   25358.58494824  .00124656  00000+0  73842-3 0  9990
2 43521  35.1339 100.4243 0014805 261.9047  98.0007 15.76545810416920
SAOCOM 1A               
1 43641U 18076A   25358.82380419  .00000621  00000+0  84583-4 0  9998
2 43641  97.8841 183.0703 0001351  86.6205 273.5163 14.82145783390277
H-2A R/B                
1 43682U 18084L   25358.79692767  .00019189  00000+0  51275-3 0  9990
2 43682  98.8766 195.3789 0026566 284.0972  75.7316 15.37800202394258
SAOCOM 1B               
1 46265U 20059A   25358.85507003  .00000391  00000+0  55702-4 0  9995
2 46265  97.8837 182.2005 0001404  85.3443 274.7930 14.82148978287664
CSS (TIANHE)            
1 48274U 21035A   25358.81873345  .00016866  00000+0  20889-3 0  9994
2 48274  41.4684 303.3494 0008229 137.3880 222.7598 15.59649599265911
COSMOS 2550             
1 48865U 21056A   25358.33299051 -.00000141  00000+0  15523-5 0  9997
2 48865  67.1450 268.8671 0008421 268.4893  91.5297 15.33846235251909
CZ-2C R/B               
1 52794U 22058K   25358.67847865  .00027249  00000+0  47985-3 0  9997
2 52794  50.1922 342.6388 0044644 247.7057 111.9175 15.49077723198486
CZ-2C R/B               
1 54039U 22132E   25358.57456779  .00032940  00000+0  47746-3 0  9992
2 54039  97.2947 355.0048 0021205  16.7023 343.4925 15.55527475178670
GSLV R/B                
1 54149U 22138AN  25358.82780594  .00002846  00000+0  24871-3 0  9999
2 54149  87.3822 191.4251 0024044  66.0095 294.3649 14.96189152172731
XRISM                   
1 57800U 23137A   25358.53137821  .00006481  00000+0  37850-3 0  9993
2 57800  31.0030  49.4069 0007627   3.7982 356.2713 15.10453716126416
ACS3                    
1 59588U 24077B   25358.81184472  .00025063  00000+0  21267-1 0  9997
2 59588  97.2602 311.7206 0074671 308.4803  50.9676 13.86030645 83813
SZ-21 MODULE            
1 66515U 25246C   25358.55337456  .00029010  00000+0  31177-3 0  9996
2 66515  41.4769 303.9494 0004724 323.7646  36.2873 15.63097156  6295
